ONEWEB-0531             
1 54146U 22138AK  25177.40284070  .00000053  00000+0  98110-4 0  9993
2 54146  87.9267 345.3030 0002001  66.7946 293.3398 13.20773581132347
ONEWEB-0535             
1 54147U 22138AL  25177.27108948  .00000045  00000+0  79849-4 0  9997
2 54147  87.9207  15.6955 0001760  79.8449 280.2882 13.19727034129898
ONEWEB-0536             
1 54148U 22138AM  25177.39022198 -.00000024  00000+0 -91725-4 0  9999
2 54148  87.9263 345.3509 0002245  65.8056 294.3312 13.20773114132336
ONEWEB-0527             
1 54642U 22166A   25177.62537371  .00000028  00000+0  36956-4 0  9996
2 54642  87.9269 314.9198 0001968  97.0709 263.0648 13.21825072124563
ONEWEB-0528             
1 54643U 22166B   25177.10181177  .00000093  00000+0  19292-3 0  9994
2 54643  87.9272 315.0233 0002006  99.5229 260.6132 13.21824778124505
ONEWEB-0539             
1 54644U 22166C   25177.36514990 -.00000012  00000+0 -61370-4 0  9994
2 54644  87.9252 314.9493 0001783 104.4574 255.6758 13.21827372124534
ONEWEB-0542             
1 54646U 22166E   25177.37461596 -.00000042  00000+0 -13282-3 0  9991
2 54646  87.9245 314.9452 0001530 103.1532 256.9772 13.21826878124533
